IRIDIUM 119             
1 42959U 17061E   25149.05102336  .00000263  00000+0  87023-4 0  9999
2 42959  86.4004 185.7743 0002326  99.2508 260.8951 14.34219062399750
IRIDIUM 107             
1 42960U 17061F   25148.86072626  .00000185  00000+0  58869-4 0  9996
2 42960  86.4006 185.8727 0002794  97.9991 262.1521 14.34217455399737
IRIDIUM 132             
1 42961U 17061G   25149.00660373  .00000130  00000+0  39261-4 0  9991
2 42961  86.4004 185.7940 0002423  94.3570 265.7902 14.34219040399751
IRIDIUM 136             
1 42962U 17061H   25149.03831886  .00000000  00000+0 -69678-5 0  9997
2 42962  86.4008 185.7852 0002300  98.7577 261.3880 14.34217605399771
IRIDIUM 139             
1 42963U 17061J   25149.04465637  .00000204  00000+0  65803-4 0  9996
2 42963  86.4005 185.8384 0002587  95.5594 264.5897 14.34216944399780
IRIDIUM 125             
1 42964U 17061K   25149.03197627  .00000027  00000+0  24400-5 0  9999
2 42964  86.4007 185.8977 0002558 106.8708 253.2768 14.34217904399792
IRIDIUM 135             
1 43070U 17083A   25148.86656456  .00000021  00000+0  57023-6 0  9994
2 43070  86.3954 122.6948 0002118  81.2394 278.9042 14.34217490389065
IRIDIUM 138             
1 43071U 17083B   25149.17100850  .00000011  00000+0 -32123-5 0  9995
2 43071  86.3944 122.2407 0001845  99.4180 260.7225 14.34217517389096
